{"type": "FeatureCollection", "features": [ {"type": "Feature", "properties": {"norad_id": 34682, "name": "COSMOS 2251 DEB", "group": "cosmos-2251-debris", "lat": -30.849694615360306, "lon": 79.81435425062077, "alt_km": 705.948060779182, "timestamp": "2025-12-09T05:43:21.121414+00:00", "meta": {"OBJECT_NAME": "COSMOS 2251 DEB", "OBJECT_ID": "1993-036YC", "EPOCH": "2025-12-08T13:28:57.741024", "MEAN_MOTION": 14.58847249, "ECCENTRICITY": 0.0018543, "INCLINATION": 74.04, "RA_OF_ASC_NODE": 90.9444, "ARG_OF_PERICENTER": 224.1225, "MEAN_ANOMALY": 151.2779, "EPHEMERIS_TYPE": 0, "CLASSIFICATION_TYPE": "U", "NORAD_CAT_ID": 34682, "ELEMENT_SET_NO": 999, "REV_AT_EPOCH": 88625, "BSTAR": 0.0013547, "MEAN_MOTION_DOT": 6.331e-05, "MEAN_MOTION_DDOT": 0}, "tle": {"line1": "1 34682U 93036YC  25342.56177941  .00006331  00000+0  13547-2 0  9994", "line2": "2 34682  74.0400  90.9444 0018543 224.1225 151.2779 14.58847249886252"}}, "geometry": {"type": "Point", "coordinates": [79.81435425062077, -30.849694615360306]}}, {"type": "Feature", "properties": {"norad_id": 34683, "name": "COSMOS 2251 DEB", "group": "cosmos-2251-debris", "lat": 47.3153878434686, "lon": 117.08929130726793, "alt_km": 687.000678980381, "timestamp": "2025-12-09T05:43:21.121424+00:00", "meta": {"OBJECT_NAME": "COSMOS 2251 DEB", "OBJECT_ID": "1993-036YD", "EPOCH": "2025-12-08T18:42:51.522336", "MEAN_MOTION": 14.6439747, "ECCENTRICITY": 0.0018534, "INCLINATION": 74.0292, "RA_OF_ASC_NODE": 99.8802, "ARG_OF_PERICENTER": 214.7694, "MEAN_ANOMALY": 298.1621, "EPHEMERIS_TYPE": 0, "CLASSIFICATION_TYPE": "U", "NORAD_CAT_ID": 34683, "ELEMENT_SET_NO": 999, "REV_AT_EPOCH": 88290, "BSTAR": 0.0021429, "MEAN_MOTION_DOT": 0.00011347, "MEAN_MOTION_DDOT": 0}, "tle": {"line1": "1 34683U 93036YD  25342.77976299  .00011347  00000+0  21429-2 0  9992", "line2": "2 34683  74.0292  99.8802 0018534 214.7694 298.1621 14.64397470882901"}}, "geometry": {"type": "Point", "coordinates": [117.08929130726793, 47.3153878434686]}}, {"type": "Feature", "properties": {"norad_id": 34685, "name": "COSMOS 2251 DEB", "group": "cosmos-2251-debris", "lat": -65.760132307414, "lon": 115.94096891904661, "alt_km": 699.4234108449082, "timestamp": "2025-12-09T05:43:21.121434+00:00", "meta": {"OBJECT_NAME": "COSMOS 2251 DEB", "OBJECT_ID": "1993-036YF", "EPOCH": "2025-12-08T13:51:54.105984", "MEAN_MOTION": 14.57447619, "ECCENTRICITY": 0.0014326, "INCLINATION": 74.0289, "RA_OF_ASC_NODE": 156.6952, "ARG_OF_PERICENTER": 260.6781, "MEAN_ANOMALY": 162.4402, "EPHEMERIS_TYPE": 0, "CLASSIFICATION_TYPE": "U", "NORAD_CAT_ID": 34685, "ELEMENT_SET_NO": 999, "REV_AT_EPOCH": 88471, "BSTAR": 0.0014952, "MEAN_MOTION_DOT": 6.775e-05, "MEAN_MOTION_DDOT": 0}, "tle": {"line1": "1 34685U 93036YF  25342.57770956  .00006775  00000+0  14952-2 0  9996", "line2": "2 34685  74.0289 156.6952 0014326 260.6781 162.4402 14.57447619884713"}}, "geometry": {"type": "Point", "coordinates": [115.94096891904661, -65.760132307414]}}, {"type": "Feature", "properties": {"norad_id": 34689, "name": "COSMOS 2251 DEB", "group": "cosmos-2251-debris", "lat": 71.58875360644772, "lon": -71.56800472688568, "alt_km": 999.6726139678185, "timestamp": "2025-12-09T05:43:21.121445+00:00", "meta": {"OBJECT_NAME": "COSMOS 2251 DEB", "OBJECT_ID": "1993-036YK", "EPOCH": "2025-12-08T17:38:51.976320", "MEAN_MOTION": 14.0436155, "ECCENTRICITY": 0.0228655, "INCLINATION": 74.0928, "RA_OF_ASC_NODE": 230.3585, "ARG_OF_PERICENTER": 300.2116, "MEAN_ANOMALY": 116.1609, "EPHEMERIS_TYPE": 0, "CLASSIFICATION_TYPE": "U", "NORAD_CAT_ID": 34689, "ELEMENT_SET_NO": 999, "REV_AT_EPOCH": 84285, "BSTAR": 0.0057568, "MEAN_MOTION_DOT": 0.00011559, "MEAN_MOTION_DDOT": 0}, "tle": {"line1": "1 34689U 93036YK  25342.73532380  .00011559  00000+0  57568-2 0  9991", "line2": "2 34689  74.0928 230.3585 0228655 300.2116 116.1609 14.04361550842859"}}, "geometry": {"type": "Point", "coordinates": [-71.56800472688568, 71.58875360644772]}}, {"type": "Feature", "properties": {"norad_id": 34721, "name": "COSMOS 2251 DEB", "group": "cosmos-2251-debris", "lat": -21.218978280570155, "lon": 158.7533051165193, "alt_km": 850.3639453966289, "timestamp": "2025-12-09T05:43:21.121456+00:00", "meta": {"OBJECT_NAME": "COSMOS 2251 DEB", "OBJECT_ID": "1993-036YP", "EPOCH": "2025-12-07T23:39:26.180352", "MEAN_MOTION": 13.96814529, "ECCENTRICITY": 0.02238624, "INCLINATION": 73.9236, "RA_OF_ASC_NODE": 334.4971, "ARG_OF_PERICENTER": 274.3054, "MEAN_ANOMALY": 113.1719, "EPHEMERIS_TYPE": 0, "CLASSIFICATION_TYPE": "U", "NORAD_CAT_ID": 34721, "ELEMENT_SET_NO": 999, "REV_AT_EPOCH": 85083, "BSTAR": 0.0021154333, "MEAN_MOTION_DOT": 3.608e-05, "MEAN_MOTION_DDOT": 0}, "tle": {"line1": "1 34721U 93036YP  25341.98571968  .00003608  00000+0  21154-2 0  9997", "line2": "2 34721  73.9236 334.4971 0223862 274.3054 113.1719 13.96814529850833"}}, "geometry": {"type": "Point", "coordinates": [158.7533051165193, -21.218978280570155]}}, {"type": "Feature", "properties": {"norad_id": 34722, "name": "COSMOS 2251 DEB", "group": "cosmos-2251-debris", "lat": -55.60450277102724, "lon": -172.6849438807473, "alt_km": 753.5081663803576, "timestamp": "2025-12-09T05:43:21.121466+00:00", "meta": {"OBJECT_NAME": "COSMOS 2251 DEB", "OBJECT_ID": "1993-036YQ", "EPOCH": "2025-12-08T01:39:18.911232", "MEAN_MOTION": 14.11910631, "ECCENTRICITY": 0.0167316, "INCLINATION": 73.8726, "RA_OF_ASC_NODE": 344.3987, "ARG_OF_PERICENTER": 270.7554, "MEAN_ANOMALY": 147.3377, "EPHEMERIS_TYPE": 0, "CLASSIFICATION_TYPE": "U", "NORAD_CAT_ID": 34722, "ELEMENT_SET_NO": 999, "REV_AT_EPOCH": 86179, "BSTAR": 0.0012190185, "MEAN_MOTION_DOT": 2.515e-05, "MEAN_MOTION_DDOT": 0}, "tle": {"line1": "1 34722U 93036YQ  25342.06896888  .00002515  00000+0  12190-2 0  9995", "line2": "2 34722  73.8726 344.3987 0167316 270.7554 147.3377 14.11910631861795"}}, "geometry": {"type": "Point", "coordinates": [-172.6849438807473, -55.60450277102724]}}, {"type": "Feature", "properties": {"norad_id": 34726, "name": "COSMOS 2251 DEB", "group": "cosmos-2251-debris", "lat": 27.836422844316765, "lon": 1.7015668390894907, "alt_km": 706.2784682749034, "timestamp": "2025-12-09T05:43:21.121477+00:00", "meta": {"OBJECT_NAME": "COSMOS 2251 DEB", "OBJECT_ID": "1993-036YU", "EPOCH": "2025-12-08T11:29:33.895392", "MEAN_MOTION": 14.59458028, "ECCENTRICITY": 0.00422049, "INCLINATION": 74.029, "RA_OF_ASC_NODE": 354.4517, "ARG_OF_PERICENTER": 146.6151, "MEAN_ANOMALY": 213.7689, "EPHEMERIS_TYPE": 0, "CLASSIFICATION_TYPE": "U", "NORAD_CAT_ID": 34726, "ELEMENT_SET_NO": 999, "REV_AT_EPOCH": 88440, "BSTAR": 0.00067581439, "MEAN_MOTION_DOT": 3.216e-05, "MEAN_MOTION_DDOT": 0}, "tle": {"line1": "1 34726U 93036YU  25342.47886453  .00003216  00000+0  67581-3 0  9995", "line2": "2 34726  74.0290 354.4517 0042204 146.6151 213.7689 14.59458028884407"}}, "geometry": {"type": "Point", "coordinates": [1.7015668390894907, 27.836422844316765]}}, {"type": "Feature", "properties": {"norad_id": 34728, "name": "COSMOS 2251 DEB", "group": "cosmos-2251-debris", "lat": 51.77728111972993, "lon": 57.23591924808453, "alt_km": 642.4515905548233, "timestamp": "2025-12-09T05:43:21.121488+00:00", "meta": {"OBJECT_NAME": "COSMOS 2251 DEB", "OBJECT_ID": "1993-036YW", "EPOCH": "2025-12-08T04:40:21.187488", "MEAN_MOTION": 14.70775682, "ECCENTRICITY": 0.00410887, "INCLINATION": 74.018, "RA_OF_ASC_NODE": 260.6035, "ARG_OF_PERICENTER": 59.4394, "MEAN_ANOMALY": 301.0821, "EPHEMERIS_TYPE": 0, "CLASSIFICATION_TYPE": "U", "NORAD_CAT_ID": 34728, "ELEMENT_SET_NO": 999, "REV_AT_EPOCH": 88733, "BSTAR": 0.0011226976, "MEAN_MOTION_DOT": 6.918e-05, "MEAN_MOTION_DDOT": 0}, "tle": {"line1": "1 34728U 93036YW  25342.19468967  .00006918  00000+0  11227-2 0  9999", "line2": "2 34728  74.0180 260.6035 0041088  59.4394 301.0821 14.70775682887334"}}, "geometry": {"type": "Point", "coordinates": [57.23591924808453, 51.77728111972993]}}, {"type": "Feature", "properties": {"norad_id": 34729, "name": "COSMOS 2251 DEB", "group": "cosmos-2251-debris", "lat": -11.300690271188172, "lon": 2.081400112545775, "alt_km": 631.2231816067906, "timestamp": "2025-12-09T05:43:21.121499+00:00", "meta": {"OBJECT_NAME": "COSMOS 2251 DEB", "OBJECT_ID": "1993-036YX", "EPOCH": "2025-12-08T12:38:33.716832", "MEAN_MOTION": 14.82610152, "ECCENTRICITY": 0.00118663, "INCLINATION": 74.018, "RA_OF_ASC_NODE": 6.7731, "ARG_OF_PERICENTER": 128.2562, "MEAN_ANOMALY": 23.3369, "EPHEMERIS_TYPE": 0, "CLASSIFICATION_TYPE": "U", "NORAD_CAT_ID": 34729, "ELEMENT_SET_NO": 999, "REV_AT_EPOCH": 88395, "BSTAR": 0.0023481946, "MEAN_MOTION_DOT": 0.00018951, "MEAN_MOTION_DDOT": 0}, "tle": {"line1": "1 34729U 93036YX  25342.52677913  .00018951  00000+0  23482-2 0  9996", "line2": "2 34729  74.0180   6.7731 0011866 128.2562  23.3369 14.82610152883958"}}, "geometry": {"type": "Point", "coordinates": [2.081400112545775, -11.300690271188172]}}, {"type": "Feature", "properties": {"norad_id": 34732, "name": "COSMOS 2251 DEB", "group": "cosmos-2251-debris", "lat": -55.6991140389516, "lon": 74.93385219365317, "alt_km": 722.4216269020326, "timestamp": "2025-12-09T05:43:21.121509+00:00", "meta": {"OBJECT_NAME": "COSMOS 2251 DEB", "OBJECT_ID": "1993-036ZA", "EPOCH": "2025-12-08T19:05:29.361408", "MEAN_MOTION": 14.47294366, "ECCENTRICITY": 0.0040456, "INCLINATION": 74.045, "RA_OF_ASC_NODE": 100.5559, "ARG_OF_PERICENTER": 252.3107, "MEAN_ANOMALY": 261.1721, "EPHEMERIS_TYPE": 0, "CLASSIFICATION_TYPE": "U", "NORAD_CAT_ID": 34732, "ELEMENT_SET_NO": 999, "REV_AT_EPOCH": 88086, "BSTAR": 0.00031405, "MEAN_MOTION_DOT": 1.133e-05, "MEAN_MOTION_DDOT": 0}, "tle": {"line1": "1 34732U 93036ZA  25342.79547872  .00001133  00000+0  31405-3 0  9998", "line2": "2 34732  74.0450 100.5559 0040456 252.3107 261.1721 14.47294366880861"}}, "geometry": {"type": "Point", "coordinates": [74.93385219365317, -55.6991140389516]}}]}